[{"OBJECT_NAME":"STARLINK-32532","OBJECT_ID":"2024-224T","EPOCH":"2026-03-09T23:08:33.570816","MEAN_MOTION":15.27591209,"ECCENTRICITY":5.561e-5,"INCLINATION":42.9995,"RA_OF_ASC_NODE":156.4155,"ARG_OF_PERICENTER":33.602,"MEAN_ANOMALY":326.4867,"EPHEMERIS_TYPE":0,"CLASSIFICATION_TYPE":"U","NORAD_CAT_ID":62156,"ELEMENT_SET_NO":999,"REV_AT_EPOCH":7236,"BSTAR":0.00084088698,"MEAN_MOTION_DOT":0.00022957,"MEAN_MOTION_DDOT":0},{"OBJECT_NAME":"USA 17","OBJECT_ID":"1986-014F","EPOCH":"2026-03-09T22:10:30.468864","MEAN_MOTION":13.73458775,"ECCENTRICITY":0.07946653,"INCLINATION":63.303,"RA_OF_ASC_NODE":12.8302,"ARG_OF_PERICENTER":113.8676,"MEAN_ANOMALY":254.7675,"EPHEMERIS_TYPE":0,"CLASSIFICATION_TYPE":"U","NORAD_CAT_ID":16625,"ELEMENT_SET_NO":999,"REV_AT_EPOCH":32918,"BSTAR":0.00045015572,"MEAN_MOTION_DOT":4.832e-5,"MEAN_MOTION_DDOT":0}]
